[{"OBJECT_NAME":"ONEWEB-0232","OBJECT_ID":"2021-045Q","EPOCH":"2026-03-09T23:12:26.033472","MEAN_MOTION":13.15547108,"ECCENTRICITY":0.00016014,"INCLINATION":87.8956,"RA_OF_ASC_NODE":278.982,"ARG_OF_PERICENTER":90.9802,"MEAN_ANOMALY":269.1512,"EPHEMERIS_TYPE":0,"CLASSIFICATION_TYPE":"U","NORAD_CAT_ID":48781,"ELEMENT_SET_NO":999,"REV_AT_EPOCH":23160,"BSTAR":0.00024878014,"MEAN_MOTION_DOT":1.06e-6,"MEAN_MOTION_DDOT":0},{"OBJECT_NAME":"ORIZURU (DEBUT)","OBJECT_ID":"1990-013B","EPOCH":"2026-03-09T17:07:30.148032","MEAN_MOTION":12.84031411,"ECCENTRICITY":0.05386911,"INCLINATION":99.0622,"RA_OF_ASC_NODE":15.2026,"ARG_OF_PERICENTER":354.6208,"MEAN_ANOMALY":4.925,"EPHEMERIS_TYPE":0,"CLASSIFICATION_TYPE":"U","NORAD_CAT_ID":20479,"ELEMENT_SET_NO":999,"REV_AT_EPOCH":69080,"BSTAR":0.0002365438,"MEAN_MOTION_DOT":7.3e-7,"MEAN_MOTION_DDOT":0}]
